ONEWEB-0578             
1 56067U 23043X   25193.60521038  .00000030  00000+0  41957-4 0  9993
2 56067  87.9275 311.7152 0001826  99.8757 260.2583 13.21827041113376
ONEWEB-0579             
1 56068U 23043Y   25193.59574225  .00000092  00000+0  19042-3 0  9995
2 56068  87.9273 311.7023 0002225 101.6890 258.4494 13.21824077113383
ONEWEB-0581             
1 56069U 23043Z   25193.51985429  .00000092  00000+0  20724-3 0  9999
2 56069  87.9052 296.4930 0002058 113.9516 246.1830 13.16594472114263
ONEWEB-0609             
1 56070U 23043AA  25193.43568107  .00000314  00000+0  80113-3 0  9997
2 56070  87.9070 326.9570 0001914  95.0496 265.0852 13.15548223111769
ONEWEB-0613             
1 56071U 23043AB  25193.43092883  .00000121  00000+0  28642-3 0  9996
2 56071  87.9078 326.9696 0002129  98.9725 261.1646 13.15548607111767
ONEWEB-0630             
1 56072U 23043AC  25193.42616612  .00000125  00000+0  29726-3 0  9996
2 56072  87.9074 326.9472 0002196  95.9439 264.1941 13.15548865111755
ONEWEB-0632             
1 56073U 23043AD  25193.42141462  .00000100  00000+0  23126-3 0  9994
2 56073  87.9073 326.9679 0001981 105.0305 255.1045 13.15549296111754
ONEWEB-0633             
1 56074U 23043AE  25193.41506318 -.00000029  00000+0 -11176-3 0  9993
2 56074  87.9070 326.9360 0002272  91.7889 268.3501 13.15549453111737
